CYGNUS NG-23            
1 65616U 25208A   25363.50072365  .00018472  00000+0  33150-3 0  9994
2 65616  51.6323  59.4638 0003289 318.5670  41.5069 15.49944447   223
DRAGONFLY               
1 65729U 98067XH  25364.12378488  .00299553  00000+0  16118-2 0  9991
2 65729  51.6255  46.3395 0008645  18.3792 341.7520 15.78757510 15901
1998-067XK              
1 65731U 98067XK  25364.13953796  .00145834  00000+0  11998-2 0  9999
2 65731  51.6294  48.7325 0005227 353.5628   6.5301 15.69410975 15871
RSP-03                  
1 65732U 98067XL  25364.10608940  .00211731  00000+0  14470-2 0  9993
2 65732  51.6266  47.7402 0006304   0.2042 359.8958 15.73594080 15898
GHS-01                  
1 65733U 98067XM  25363.40206568  .00414300  00000+0  17754-2 0  9991
2 65733  51.6276  49.0281 0009715  18.8599 341.2762 15.83384232 15818
YOTSUBA-KULOVER         
1 65941U 98067XN  25363.36212930  .00097972  00000+0  11005-2 0  9992
2 65941  51.6297  56.2929 0002988  20.6804 339.4310 15.61820724 12458
BOTAN                   
1 65942U 98067XP  25363.38831920  .00159209  00000+0  14634-2 0  9994
2 65942  51.6280  54.9645 0003949   6.1165 353.9879 15.66651732 12477
E-KAGAKU-1              
1 65943U 98067XQ  25363.36216190  .00100051  00000+0  11223-2 0  9991
2 65943  51.6307  56.2984 0001723   0.4534 359.6461 15.61851101 12459
HRC MONOBLOCK CAMERA    
1 66052U 98067XR  25364.13442161  .00045374  00000+0  65719-3 0  9994
2 66052  51.6310  54.6971 0001674 276.0871  83.9929 15.55411618 11546
HTV-X1                  
1 66174U 25241A   25363.50072365  .00018472  00000+0  33150-3 0  9991
2 66174  51.6323  59.4638 0003289 318.5670  41.5069 15.49944447   515
SZ-21 MODULE            
1 66515U 25246C   25364.11133491  .00038668  00000+0  40775-3 0  9991
2 66515  41.4763 270.0034 0003305 356.9568   3.1251 15.63480572  7166
SHENZHOU-22             
1 66645U 25272A   25363.17274057  .00025856  00000+0  31523-3 0  9999
2 66645  41.4674 276.8939 0009230 173.1352 186.9615 15.59842432265984
